KUIPER-00176            
1 65788U 25217AC  25361.16668980 -.00040251  00000+0 -49238-2 0  9993
2 65788  51.9008   3.8725 0001108 162.8983 215.4700 14.82860385  2298
KUIPER-00101            
1 65947U 25228A   25361.16668980 -.00029428  00000+0 -37387-2 0  9997
2 65947  51.8991 321.3034 0000700 118.9999 225.5874 14.81136868  5199
KUIPER-00113            
1 65948U 25228B   25361.16668980 -.00045564  00000+0 -45024-2 0  9994
2 65948  51.8949 316.8518 0005817  79.3519 162.3845 14.91558589  5691
KUIPER-00117            
1 65949U 25228C   25361.16668980 -.00025176  00000+0 -29864-2 0  9996
2 65949  51.8987 318.9387 0009705  76.3604 194.2457 14.83856521  3119
KUIPER-00121            
1 65950U 25228D   25361.16668980 -.01787379  00000+0 -14851+0 0  9996
2 65950  51.8893 314.4388 0005447  86.7130  51.5266 15.01919891  1861
KUIPER-00122            
1 65951U 25228E   25361.19932235  .00055128  00000+0  72338-2 0  9991
2 65951  51.9015 323.6346 0000426 114.0073 246.0934 14.79742082 12469
KUIPER-00123            
1 65952U 25228F   25359.13946781  .00070142  00000+0  92633-2 0  9997
2 65952  51.8998 332.7639 0000613  98.9393 261.1639 14.79340687 12159
KUIPER-00124            
1 65953U 25228G   25361.16668980 -.00019690  00000+0 -23335-2 0  9992
2 65953  51.8989 316.3890 0002583  80.8268 190.7437 14.83792853  5635
